     2.11           G: GLONASS NAV DATA                     RINEX VERSION / TYPE
LEICA GEO OFFICE 8.4                    2-10-20 23:22       PGM / RUN BY / DATE
                                                            END OF HEADER
 1 20 10  1 23 15  2.0 6.840191781521D-05 0.000000000000D+00-3.384000000000D+05
   -8.515918945313D+03 2.494687080383D+00-1.862645149231D-09 0.000000000000D+00
   -7.383752441406D+03-1.895019531250D+00 0.000000000000D+00 1.000000000000D+00
    2.287689111328D+04 3.180942535400D-01-1.862645149231D-09 0.000000000000D+00
 1 20 10  1 23 45  2.0 6.840284913778D-05 0.000000000000D+00-3.366000000000D+05
   -4.287641601563D+03 2.166136741638D+00-9.313225746155D-10 0.000000000000D+00
   -1.110290234375D+04-2.202049255371D+00 9.313225746155D-10 1.000000000000D+00
    2.255737109375D+04-6.707744598389D-01-1.862645149231D-09 0.000000000000D+00
 2 20 10  1 23 15  2.0 4.480723291636D-04 1.818989403546D-12-3.384000000000D+05
   -2.110633203125D+04 1.361763000488D+00-3.725290298462D-09 0.000000000000D+00
    8.611593750000D+03-8.014526367188D-01-1.862645149231D-09-4.000000000000D+00
    1.154234277344D+04 3.091526985168D+00-9.313225746155D-10 0.000000000000D+00
 2 20 10  1 23 45  2.0 4.480760544538D-04 1.818989403546D-12-3.366000000000D+05
   -1.828801171875D+04 1.724603652954D+00-3.725290298462D-09 0.000000000000D+00
    6.571664062500D+03-1.469655990601D+00-9.313225746155D-10-4.000000000000D+00
    1.659159423828D+04 2.482532501221D+00-1.862645149231D-09 0.000000000000D+00
 2 20 10  2  0 15  2.0 4.480807110667D-04 1.818989403546D-12-4.212000000000D+05
   -1.506456347656D+04 1.810979843140D+00-2.793967723846D-09 0.000000000000D+00
    3.338372070313D+03-2.108633041382D+00 0.000000000000D+00-4.000000000000D+00
    2.036460253906D+04 1.682596206665D+00-1.862645149231D-09 0.000000000000D+00
 2 20 10  2  0 45  2.0 4.480844363570D-04 1.818989403546D-12-4.194000000000D+05
   -1.192491503906D+04 1.638062477112D+00-1.862645149231D-09 0.000000000000D+00
   -9.360048828125D+02-2.609210968018D+00 9.313225746155D-10-4.000000000000D+00
    2.257087939453D+04 7.528934478760D-01-1.862645149231D-09 0.000000000000D+00
 2 20 10  2  1 15  2.0 4.480881616473D-04 1.818989403546D-12-4.176000000000D+05
   -9.288324218750D+03 1.264908790588D+00 0.000000000000D+00 0.000000000000D+00
   -5.916460449219D+03-2.880376815796D+00 9.313225746155D-10-4.000000000000D+00
    2.303971679688D+04-2.354869842529D-01-1.862645149231D-09 0.000000000000D+00
 2 20 10  2  1 45  2.0 4.480918869376D-04 1.818989403546D-12-4.158000000000D+05
   -7.437327148438D+03 7.821645736694D-01 0.000000000000D+00 0.000000000000D+00
   -1.113221337891D+04-2.864430427551D+00 9.313225746155D-10-4.000000000000D+00
    2.173338916016D+04-1.206792831421D+00-1.862645149231D-09 0.000000000000D+00
 3 20 10  1 23 15  2.0 2.303346991539D-05 9.094947017729D-13-3.370200000000D+05
   -1.828850585938D+04-5.443124771118D-01-2.793967723846D-09 0.000000000000D+00
    1.685328466797D+04 5.975303649902D-01-1.862645149231D-09 5.000000000000D+00
   -5.757189941406D+03 3.452152252197D+00 0.000000000000D+00 0.000000000000D+00
 3 20 10  1 23 45  2.0 2.303533256054D-05 9.094947017729D-13-3.366000000000D+05
   -1.860624121094D+04 1.695499420166D-01-3.725290298462D-09 0.000000000000D+00
    1.748118457031D+04 6.542491912842D-02-1.862645149231D-09 5.000000000000D+00
    5.986342773438D+02 3.564118385315D+00 0.000000000000D+00 0.000000000000D+00
 3 20 10  2  0 15  2.0 2.303719520569D-05 9.094947017729D-13-4.212000000000D+05
   -1.778306494141D+04 7.096061706543D-01-3.725290298462D-09 0.000000000000D+00
    1.698694091797D+04-6.354103088379D-01-9.313225746155D-10 5.000000000000D+00
    6.908404296875D+03 3.401403427124D+00-9.313225746155D-10 0.000000000000D+00
 3 20 10  2  0 45  2.0 2.303998917341D-05 9.094947017729D-13-4.194000000000D+05
   -1.619529150391D+04 1.011702537537D+00-3.725290298462D-09 0.000000000000D+00
    1.515000781250D+04-1.408546447754D+00 0.000000000000D+00 5.000000000000D+00
    1.268625878906D+04 2.976976394653D+00-9.313225746155D-10 0.000000000000D+00
 3 20 10  2  1 15  2.0 2.304185181856D-05 9.094947017729D-13-4.176000000000D+05
   -1.429794677734D+04 1.053641319275D+00-3.725290298462D-09 0.000000000000D+00
    1.194007958984D+04-2.141923904419D+00 0.000000000000D+00 5.000000000000D+00
    1.748784667969D+04 2.323677062988D+00-1.862645149231D-09 0.000000000000D+00
 3 20 10  2  1 45  2.0 2.304464578629D-05 9.094947017729D-13-4.158000000000D+05
   -1.254546972656D+04 8.581447601318D-01-1.862645149231D-09 0.000000000000D+00
    7.529102050781D+03-2.725953102112D+00 9.313225746155D-10 5.000000000000D+00
    2.094398828125D+04 1.491651535034D+00-1.862645149231D-09 0.000000000000D+00
 3 20 10  2  2 15  2.0 2.304650843143D-05 9.094947017729D-13-4.140000000000D+05
   -1.131375341797D+04 4.884357452393D-01-9.313225746155D-10 0.000000000000D+00
    2.270610839844D+03-3.071224212646D+00 9.313225746155D-10 5.000000000000D+00
    2.278857958984D+04 5.445671081543D-01-1.862645149231D-09 0.000000000000D+00
 3 20 10  2  2 45  2.0 2.304837107658D-05 9.094947017729D-13-4.122000000000D+05
   -1.083629150391D+04 3.720474243164D-02 0.000000000000D+00 0.000000000000D+00
   -3.350330078125D+03-3.123022079468D+00 9.313225746155D-10 5.000000000000D+00
    2.287879980469D+04-4.451160430908D-01-1.862645149231D-09 0.000000000000D+00
 3 20 10  2  3 15  2.0 2.305489033461D-05 9.094947017729D-13-4.104000000000D+05
   -1.116486572266D+04-3.892612457275D-01 9.313225746155D-10 0.000000000000D+00
   -8.788631835938D+03-2.870308876038D+00 9.313225746155D-10 5.000000000000D+00
    2.120618261719D+04-1.401504516602D+00-1.862645149231D-09 0.000000000000D+00
 3 20 10  2  3 45  2.0 2.305675297976D-05 0.000000000000D+00-4.086000000000D+05
   -1.216127636719D+04-6.892185211182D-01 1.862645149231D-09 0.000000000000D+00
   -1.352068945313D+04-2.347711563110D+00 0.000000000000D+00 5.000000000000D+00
    1.789771728516D+04-2.250934600830D+00-1.862645149231D-09 0.000000000000D+00
 4 20 10  2  0 45  2.0 5.651451647282D-05 9.094947017729D-13-4.190100000000D+05
   -1.124804687500D+04-1.513442993164D-01-3.725290298462D-09 0.000000000000D+00
    2.249420947266D+04 5.941219329834D-01-9.313225746155D-10 6.000000000000D+00
   -4.263499511719D+03 3.516489028931D+00 0.000000000000D+00 0.000000000000D+00
 4 20 10  2  1 15  2.0 5.651731044054D-05 1.818989403546D-12-4.176000000000D+05
   -1.109853613281D+04 2.819480895996D-01-3.725290298462D-09 0.000000000000D+00
    2.287246044922D+04-1.948890686035D-01 0.000000000000D+00 6.000000000000D+00
    2.149226562500D+03 3.562498092651D+00 0.000000000000D+00 0.000000000000D+00
 4 20 10  2  1 45  2.0 5.651917308569D-05 1.818989403546D-12-4.158000000000D+05
   -1.037495068359D+04 4.801797866821D-01-3.725290298462D-09 0.000000000000D+00
    2.174973583984D+04-1.054882049561D+00 0.000000000000D+00 6.000000000000D+00
    8.395904785156D+03 3.333243370056D+00-9.313225746155D-10 0.000000000000D+00
 4 20 10  2  2 15  2.0 5.652196705341D-05 1.818989403546D-12-4.140000000000D+05
   -9.521072753906D+03 4.279775619507D-01-3.725290298462D-09 0.000000000000D+00
    1.910205175781D+04-1.869759559631D+00 9.313225746155D-10 6.000000000000D+00
    1.399415234375D+04 2.846738815308D+00-9.313225746155D-10 0.000000000000D+00
 4 20 10  2  2 45  2.0 5.652476102114D-05 1.818989403546D-12-4.122000000000D+05
   -8.967400878906D+03 1.551799774170D-01-2.793967723846D-09 0.000000000000D+00
    1.511291845703D+04-2.528212547302D+00 1.862645149231D-09 6.000000000000D+00
    1.851214355469D+04 2.140765190125D+00-1.862645149231D-09 0.000000000000D+00
 4 20 10  2  3 15  2.0 5.652755498886D-05 1.818989403546D-12-4.104000000000D+05
   -9.053600585938D+03-2.686347961426D-01-1.862645149231D-09 0.000000000000D+00
    1.014827636719D+04-2.941601753235D+00 1.862645149231D-09 6.000000000000D+00
    2.160170263672D+04 1.269875526428D+00-1.862645149231D-09 0.000000000000D+00
 4 20 10  2  3 45  2.0 5.653034895658D-05 1.818989403546D-12-4.086000000000D+05
   -9.966978515625D+03-7.462291717529D-01 0.000000000000D+00 0.000000000000D+00
    4.702199707031D+03-3.058108329773D+00 1.862645149231D-09 6.000000000000D+00
    2.302485693359D+04 3.011741638184D-01-1.862645149231D-09 0.000000000000D+00
 4 20 10  2  4 15  2.0 5.653314292431D-05 1.818989403546D-12-4.068000000000D+05
   -1.170719433594D+04-1.169362068176D+00 0.000000000000D+00 0.000000000000D+00
   -6.777363281250D+02-2.870877265930D+00 9.313225746155D-10 6.000000000000D+00
    2.267192675781D+04-6.908025741577D-01-1.862645149231D-09 0.000000000000D+00
 4 20 10  2  4 45  2.0 5.653314292431D-05 1.818989403546D-12-4.050000000000D+05
   -1.408304589844D+04-1.437280654907D+00 9.313225746155D-10 0.000000000000D+00
   -5.473284667969D+03-2.418857574463D+00 0.000000000000D+00 6.000000000000D+00
    2.056987695313D+04-1.629729270935D+00-1.862645149231D-09 0.000000000000D+00
 4 20 10  2  5 15  2.0 5.653593689203D-05 1.818989403546D-12-4.032000000000D+05
   -1.674191943359D+04-1.474020004272D+00 1.862645149231D-09 0.000000000000D+00
   -9.273118652344D+03-1.780224800110D+00-9.313225746155D-10 6.000000000000D+00
    1.688033105469D+04-2.443260192871D+00-9.313225746155D-10 0.000000000000D+00
 5 20 10  2  1 45  2.0 5.856808274984D-05 9.094947017729D-13-4.140300000000D+05
   -2.560393554688D+03-1.790218353271D-01-3.725290298462D-09 0.000000000000D+00
    2.377241308594D+04 1.220015525818D+00 0.000000000000D+00 1.000000000000D+00
   -8.917541992188D+03 3.299767494202D+00 9.313225746155D-10 0.000000000000D+00
 5 20 10  2  2 15  2.0 5.856901407242D-05 9.094947017729D-13-4.140000000000D+05
   -2.577748046875D+03 1.236152648926D-01-3.725290298462D-09 0.000000000000D+00
    2.524516259766D+04 3.948564529419D-01 0.000000000000D+00 1.000000000000D+00
   -2.710269042969D+03 3.552464485168D+00 0.000000000000D+00 0.000000000000D+00
